STARLINK-31666          
1 59572U 24076J   26068.17097980 -.00001767  00000+0 -54722-4 0  9996
2 59572  43.0036   4.9544 0001120 268.9882  91.0841 15.27577145106508
FLOCK 4G-18             
1 62680U 25009BZ  26068.19114186  .00011766  00000+0  44319-3 0  9995
2 62680  97.4054 150.5008 0004100 335.7331  24.3715 15.27241676121267
